PROBA-1                 
1 26958U 01049B   26198.33664046  .00001143  00000+0  77104-4 0  9993
2 26958  97.9599 207.9244 0055591  22.7177 337.6492 15.07620995348169
CUTE-1 (CO-55)          
1 27844U 03031E   26198.24363234  .00000130  00000+0  74994-4 0  9995
2 27844  98.6744 206.4251 0010861  97.4238 262.8176 14.24352277195952
CUBESAT XI-IV (CO-57)   
1 27848U 03031J   26197.96606915  .00000108  00000+0  66478-4 0  9996
2 27848  98.6775 205.8397 0010600 114.7088 245.5195 14.23635119195611
APRIZESAT 4             
1 35684U 09041D   26197.99411073  .00000350  00000+0  48546-4 0  9997
2 35684  98.1404 273.9074 0042339 223.5589 136.2279 14.83915185915786
APRIZESAT 3             
1 35686U 09041F   26197.99117614  .00000583  00000+0  55652-4 0  9997
2 35686  98.2104 352.6500 0060743 329.9453  29.8285 14.96313668920833
PROBA-2                 
1 36037U 09059B   26198.22652167  .00000057  00000+0  23868-4 0  9991
2 36037  98.2461  21.1644 0013153 182.4076 177.7060 14.54874092885890
APRIZESAT 5             
1 37792U 11044E   26198.27307244  .00000370  00000+0  54221-4 0  9990
2 37792  98.2448 132.1678 0050683 265.8178  93.7240 14.81129364803243
APRIZESAT 6             
1 37793U 11044F   26197.75285005  .00000348  00000+0  56622-4 0  9995
2 37793  98.2335 108.8536 0042920 353.2900  67.9147 14.76958132801516
PROBA-V                 
1 39159U 13021A   26197.91980924  .00000010  00000+0  22272-4 0  9990
2 39159  98.3606 175.0618 0005197  55.8916 304.2757 14.23603572685342
APRIZESAT 7             
1 39416U 13066A   26198.27467951  .00000658  00000+0  70388-4 0  9994
2 39416  97.7723 151.0656 0037295 110.7055 249.8168 14.91621697685710
APRIZESAT 8             
1 39425U 13066K   26198.27409491  .00000358  00000+0  44754-4 0  9994
2 39425  97.8230 145.3253 0045675 184.9960 175.0807 14.87698048684147
BUGSAT-1 (TITA)         
1 40014U 14033E   26198.27127700  .00003721  00000+0  19631-3 0  9997
2 40014  98.0433 292.5860 0028899  79.0153 281.4326 15.15894800660392
SAUDISAT 4              
1 40016U 14033G   26197.94305960  .00000221  00000+0  36008-4 0  9998
2 40016  97.7620 343.0551 0044101 338.3305  21.6040 14.79576559650473
APRIZESAT 9             
1 40018U 14033J   26197.93610739  .00000298  00000+0  51058-4 0  9998
2 40018  97.9097 330.4134 0067483 104.4598 256.4112 14.74253859647942
APRIZESAT 10            
1 40019U 14033K   26197.92252854  .00000288  00000+0  53011-4 0  9998
2 40019  97.9684 324.2242 0078871 177.8378 182.3185 14.70912064646626
TECHDEMOSAT-1 (TDS-1)   
1 40076U 14037H   26197.97530801  .00003767  00000+0  21357-3 0  9993
2 40076  98.3828 193.1524 0007077 153.0804 207.0793 15.13694218652735
TECHNOSAT               
1 42829U 17042E   26197.96807869  .00001484  00000+0  10815-3 0  9991
2 42829  97.4320 354.5006 0017261 357.7865   2.3283 15.05116982491182
FLYING LAPTOP           
1 42831U 17042G   26198.31286390  .00001804  00000+0  14415-3 0  9990
2 42831  97.4816 352.7137 0019597  25.7451 334.4745 15.01320786490970
HAWK-A                  
1 43765U 18099H   26198.07570926  .00003796  00000+0  15258-3 0  9992
2 43765  97.3893 249.9255 0034934 177.4083 182.7343 15.24979113417658
HAWK-B                  
1 43794U 18099AN  26198.13315956  .00003241  00000+0  13853-3 0  9995
2 43794  97.3942 249.3342 0031577 195.2137 164.8153 15.23128342417596
HAWK-C                  
1 43799U 18099AT  26198.31131583  .00004575  00000+0  16371-3 0  9991
2 43799  97.3870 251.2204 0040521 176.3586 183.7957 15.28510433418513
SALSAT                  
1 46495U 20068K   26197.96833821  .00003909  00000+0  13663-3 0  9991
2 46495  97.8858 202.8562 0009384 186.4299 173.6821 15.30186484319914
HAWK-2C                 
1 47502U 21006CT  26198.20747129  .00003491  00000+0  10502-3 0  9992
2 47502  97.2261 241.9227 0008676  95.1950 265.0284 15.35003779304105
HAWK-2A                 
1 47505U 21006CW  26198.20966682  .00004178  00000+0  12515-3 0  9991
2 47505  97.2301 242.6200 0008225  98.5451 261.6725 15.35025818304105
HAWK-2B                 
1 47508U 21006CZ  26198.07265874  .00004278  00000+0  12755-3 0  9991
2 47508  97.2173 240.7705 0008763  97.1141 263.1099 15.35152493304080
HAWK-3B                 
1 48931U 21059BE  26197.50073101  .00030374  00000+0  23387-3 0  9996
2 48931  97.6631  37.0342 0004634 193.4440 166.6700 15.71948524282453
HAWK-3C                 
1 48948U 21059BX  26198.00966956  .00029575  00000+0  22742-3 0  9994
2 48948  97.6748  43.3297 0004953 192.2303 167.8840 15.71982005282537
HAWK-3A                 
1 48957U 21059CG  26197.56395893  .00029863  00000+0  22989-3 0  9993
2 48957  97.6691  40.0209 0004819 195.8610 164.2502 15.71953796282465
HAWK-5C                 
1 52754U 22057Y   26197.96239029  .00010205  00000+0  16914-3 0  9995
2 52754  97.6621 359.5768 0002635 338.6084  21.5057 15.52364438230968
HAWK-5B                 
1 52756U 22057AA  26198.15558976  .00010690  00000+0  17708-3 0  9994
2 52756  97.6636 358.1368 0003308 323.0148  37.0875 15.52365681230998
